NORAD_CAT_ID,OBJECT_NAME,OBJECT_TYPE,EPOCH,MEAN_MOTION,ECCENTRICITY,INCLINATION,RA_OF_ASC_NODE,ARG_OF_PERICENTER,MEAN_ANOMALY,BSTAR,MEAN_MOTION_DOT,MEAN_MOTION_DDOT,TLE_LINE0,TLE_LINE1,TLE_LINE2,SEMIMAJOR_AXIS,PERIOD,APOGEE,PERIGEE,DECAYED
54191.0,STARLINK-4619,PAYLOAD,2023-08-26 06:00:21,15.08834157,0.0001289,53.217,193.3053,92.8557,267.2582,0.00011357,1.52e-05,0.0,0 STARLINK-4619,1 54191U 22141AL  23238.25025405  .00001520  00000-0  11357-3 0  9999,2 54191  53.2170 193.3053 0001289  92.8557 267.2582 15.08834157 46363,6917.898,95.438,540.655,538.872,0.0
54191.0,STARLINK-4619,PAYLOAD,2023-08-27 05:51:08,15.08844475,0.0001382,53.2167,188.8432,94.7131,265.4019,2.4666e-05,1.05e-06,0.0,0 STARLINK-4619,1 54191U 22141AL  23239.24385238  .00000105  00000-0  24666-4 0  9998,2 54191  53.2167 188.8432 0001382  94.7131 265.4019 15.08844475 46282,6917.867,95.437,540.688,538.776,0.0
54191.0,STARLINK-4619,PAYLOAD,2023-08-28 02:31:10,15.08838256,0.0001412,53.2166,184.9773,93.7755,266.3399,4.0266e-05,3.53e-06,0.0,0 STARLINK-4619,1 54191U 22141AL  23240.10497701  .00000353  00000-0  40266-4 0  9993,2 54191  53.2166 184.9773 0001412  93.7755 266.3399 15.08838256 46642,6917.886,95.438,540.728,538.774,0.0
54191.0,STARLINK-4619,PAYLOAD,2023-08-28 05:41:56,15.08841146,0.0001432,53.2167,184.3825,91.2952,268.8204,6.1867e-05,6.97e-06,0.0,0 STARLINK-4619,1 54191U 22141AL  23240.23745472  .00000697  00000-0  61867-4 0  9999,2 54191  53.2167 184.3825 0001432  91.2952 268.8204 15.08841146 46430,6917.877,95.437,540.733,538.751,0.0
54191.0,STARLINK-4619,PAYLOAD,2023-08-29 05:32:43,15.08843301,0.0001455,53.2162,179.9223,90.8384,269.2775,4.829e-05,4.81e-06,0.0,0 STARLINK-4619,1 54191U 22141AL  23241.23105412  .00000481  00000-0  48290-4 0  9990,2 54191  53.2162 179.9223 0001455  90.8384 269.2775 15.08843301 46811,6917.87,95.437,540.742,538.729,0.0
54191.0,STARLINK-4619,PAYLOAD,2023-08-29 13:29:39,15.08838709,0.0001433,53.2162,178.436,88.6465,271.4692,2.2117e-05,6.4e-07,0.0,0 STARLINK-4619,1 54191U 22141AL  23241.56225820  .00000064  00000-0  22117-4 0  9999,2 54191  53.2162 178.4360 0001433  88.6465 271.4692 15.08838709 46637,6917.884,95.438,540.741,538.758,0.0
54191.0,STARLINK-4619,PAYLOAD,2023-08-30 00:37:21,15.0883708,0.0001359,53.2165,176.3549,89.6568,270.458,-5.9245e-06,-3.82e-06,0.0,0 STARLINK-4619,1 54191U 22141AL  23242.02594117 -.00000382  00000-0 -59245-5 0  9997,2 54191  53.2165 176.3549 0001359  89.6568 270.4580 15.08837080 46937,6917.889,95.438,540.694,538.814,0.0
54191.0,STARLINK-4619,PAYLOAD,2023-08-30 02:12:44,15.08838215,0.0001384,53.2164,176.0569,94.5653,265.5497,1.4467e-05,-5.8e-07,0.0,0 STARLINK-4619,1 54191U 22141AL  23242.09217963 -.00000058  00000-0  14467-4 0  9990,2 54191  53.2164 176.0569 0001384  94.5653 265.5497 15.08838215 46712,6917.886,95.438,540.708,538.793,0.0
54191.0,STARLINK-4619,PAYLOAD,2023-08-31 05:14:17,15.08846078,0.0001344,53.2162,171.003,83.5081,276.6064,3.2752e-05,2.33e-06,0.0,0 STARLINK-4619,1 54191U 22141AL  23243.21825439  .00000233  00000-0  32752-4 0  9999,2 54191  53.2162 171.0030 0001344  83.5081 276.6064 15.08846078 47111,6917.862,95.437,540.657,538.797,0.0
54191.0,STARLINK-4619,PAYLOAD,2023-09-01 01:54:19,15.08820122,0.0001228,53.2163,167.1376,84.1729,275.9403,0.00024448,3.603e-05,0.0,0 STARLINK-4619,1 54191U 22141AL  23244.07938738  .00003603  00000-0  24448-3 0  9997,2 54191  53.2163 167.1376 0001228  84.1729 275.9403 15.08820122 47243,6917.941,95.439,540.656,538.957,0.0
54191.0,STARLINK-4619,PAYLOAD,2023-09-01 05:05:04,15.08837913,0.000145,53.2169,166.5422,81.6403,278.4753,3.6292e-05,2.9e-06,0.0,0 STARLINK-4619,1 54191U 22141AL  23244.21186114  .00000290  00000-0  36292-4 0  9996,2 54191  53.2169 166.5422 0001450  81.6403 278.4753 15.08837913 47266,6917.887,95.438,540.755,538.749,0.0
54191.0,STARLINK-4619,PAYLOAD,2023-09-01 11:26:37,15.08837107,0.0001452,53.2159,165.3533,80.9953,279.1204,1.1143e-05,-1.11e-06,0.0,0 STARLINK-4619,1 54191U 22141AL  23244.47682260 -.00000111  00000-0  11143-4 0  9998,2 54191  53.2159 165.3533 0001452  80.9953 279.1204 15.08837107 47072,6917.889,95.438,540.759,538.75,0.0
54191.0,STARLINK-4619,PAYLOAD,2023-09-01 19:23:32,15.0883721,0.0001469,53.2159,163.866,82.5986,277.5173,5.0982e-05,5.23e-06,0.0,0 STARLINK-4619,1 54191U 22141AL  23244.80802065  .00000523  00000-0  50982-4 0  9992,2 54191  53.2159 163.8660 0001469  82.5986 277.5173 15.08837210 47126,6917.889,95.438,540.77,538.738,0.0
54191.0,STARLINK-4619,PAYLOAD,2023-09-02 01:45:04,15.08844159,0.0001478,53.2164,162.6777,88.2272,271.8889,0.00011277,1.507e-05,0.0,0 STARLINK-4619,1 54191U 22141AL  23245.07297413  .00001507  00000-0  11277-3 0  9993,2 54191  53.2164 162.6777 0001478  88.2272 271.8889 15.08844159 47399,6917.868,95.437,540.755,538.71,0.0
54191.0,STARLINK-4619,PAYLOAD,2023-09-02 11:17:24,15.08837967,0.0001573,53.2166,160.8921,79.7772,280.3398,4.6036e-05,4.45e-06,0.0,0 STARLINK-4619,1 54191U 22141AL  23245.47042075  .00000445  00000-0  46036-4 0  9991,2 54191  53.2166 160.8921 0001573  79.7772 280.3398 15.08837967 47229,6917.887,95.438,540.84,538.663,0.0
54191.0,STARLINK-4619,PAYLOAD,2023-09-02 17:38:57,15.08834981,0.0001741,53.2171,159.7039,85.9542,274.1649,2.5359e-05,1.15e-06,0.0,0 STARLINK-4619,1 54191U 22141AL  23245.73538413  .00000115  00000-0  25359-4 0  9995,2 54191  53.2171 159.7039 0001741  85.9542 274.1649 15.08834981 47495,6917.896,95.438,540.965,538.556,0.0
54191.0,STARLINK-4619,PAYLOAD,2023-09-02 19:14:20,15.08830885,0.000165,53.2171,159.4064,84.991,275.1271,-7.3738e-06,-4.05e-06,0.0,0 STARLINK-4619,1 54191U 22141AL  23245.80162851 -.00000405  00000-0 -73738-5 0  9991,2 54191  53.2171 159.4064 0001650  84.9910 275.1271 15.08830885 47274,6917.908,95.438,540.915,538.632,0.0
54191.0,STARLINK-4619,PAYLOAD,2023-09-03 11:08:11,15.08844163,0.0001326,53.2175,156.4338,87.093,273.0214,-0.00010765,-2.001e-05,0.0,0 STARLINK-4619,1 54191U 22141AL  23246.46402414 -.00002001  00000-0 -10765-3 0  9999,2 54191  53.2175 156.4338 0001326  87.0930 273.0214 15.08844163 47374,6917.868,95.437,540.65,538.815,0.0
54191.0,STARLINK-4619,PAYLOAD,2023-09-04 03:02:03,15.08839184,0.0001423,53.2168,153.4587,88.7807,271.3348,-2.1532e-05,-6.31e-06,0.0,0 STARLINK-4619,1 54191U 22141AL  23247.12642788 -.00000631  00000-0 -21532-4 0  9995,2 54191  53.2168 153.4587 0001423  88.7807 271.3348 15.08839184 47701,6917.883,95.438,540.732,538.763,0.0
54191.0,STARLINK-4619,PAYLOAD,2023-09-04 10:58:59,15.08839816,0.0001409,53.2167,151.9715,86.309,273.8064,-4.2385e-05,-9.62e-06,0.0,0 STARLINK-4619,1 54191U 22141AL  23247.45762816 -.00000962  00000-0 -42385-4 0  9992,2 54191  53.2167 151.9715 0001409  86.3090 273.8064 15.08839816 47522,6917.881,95.438,540.721,538.771,0.0
54191.0,STARLINK-4619,PAYLOAD,2023-09-05 02:52:50,15.08837795,0.0001371,53.2165,148.998,84.2982,275.8167,6.8588e-05,8.04e-06,0.0,0 STARLINK-4619,1 54191U 22141AL  23248.12002942  .00000804  00000-0  68588-4 0  9990,2 54191  53.2165 148.9980 0001371  84.2982 275.8167 15.08837795 47626,6917.887,95.438,540.701,538.804,0.0
54191.0,STARLINK-4619,PAYLOAD,2023-09-06 01:08:13,15.08848327,0.0001391,53.2166,144.8353,85.6512,274.4639,0.00011499,1.543e-05,0.0,0 STARLINK-4619,1 54191U 22141AL  23249.04738037  .00001543  00000-0  11499-3 0  9992,2 54191  53.2166 144.8353 0001391  85.6512 274.4639 15.08848327 47994,6917.855,95.437,540.682,538.758,0.0
54191.0,STARLINK-4619,PAYLOAD,2023-09-06 23:23:38,15.08840278,0.0001421,53.2166,140.6731,83.6316,276.4838,6.2522e-05,7.07e-06,0.0,0 STARLINK-4619,1 54191U 22141AL  23249.97474592  .00000707  00000-0  62522-4 0  9992,2 54191  53.2166 140.6731 0001421  83.6316 276.4838 15.08840278 48139,6917.88,95.438,540.728,538.762,0.0
54191.0,STARLINK-4619,PAYLOAD,2023-09-07 02:34:23,15.08846272,0.000139,53.2165,140.0778,82.5495,277.5655,4.4267e-05,4.17e-06,0.0,0 STARLINK-4619,1 54191U 22141AL  23250.10722216  .00000417  00000-0  44267-4 0  9992,2 54191  53.2165 140.0778 0001390  82.5495 277.5655 15.08846272 47929,6917.861,95.437,540.688,538.765,0.0
54191.0,STARLINK-4619,PAYLOAD,2023-09-07 23:14:25,15.0882975,0.0001389,53.2168,136.2085,92.6606,267.4545,0.00010821,1.434e-05,0.0,0 STARLINK-4619,1 54191U 22141AL  23250.96834735  .00001434  00000-0  10821-3 0  9994,2 54191  53.2168 136.2085 0001389  92.6606 267.4545 15.08829750 48282,6917.912,95.438,540.738,538.816,0.0
54191.0,STARLINK-4619,PAYLOAD,2023-09-08 16:43:37,15.08851604,0.0001553,53.2174,132.9409,91.9776,268.1394,0.00024399,3.598e-05,0.0,0 STARLINK-4619,1 54191U 22141AL  23251.69696450  .00003598  00000-0  24399-3 0  9993,2 54191  53.2174 132.9409 0001553  91.9776 268.1394 15.08851604 48390,6917.845,95.437,540.784,538.636,0.0
54191.0,STARLINK-4619,PAYLOAD,2023-09-08 21:29:49,15.08822828,0.0001811,53.2173,132.0484,99.0875,261.0322,-6.8349e-05,-1.375e-05,0.0,0 STARLINK-4619,1 54191U 22141AL  23251.89570992 -.00001375  00000-0 -68349-4 0  9994,2 54191  53.2173 132.0484 0001811  99.0875 261.0322 15.08822828 48196,6917.933,95.439,541.051,538.545,0.0
54191.0,STARLINK-4619,PAYLOAD,2023-09-09 02:15:58,15.08826147,0.0001677,53.2172,131.1563,95.5923,264.5261,-6.2968e-05,-1.29e-05,0.0,0 STARLINK-4619,1 54191U 22141AL  23252.09442929 -.00001290  00000-0 -62968-4 0  9992,2 54191  53.2172 131.1563 0001677  95.5923 264.5261 15.08826147 48455,6917.923,95.438,540.948,538.628,0.0
54191.0,STARLINK-4619,PAYLOAD,2023-09-09 08:37:31,15.08824547,0.0001608,53.2168,129.9662,88.656,271.4616,-8.3287e-05,-1.613e-05,0.0,0 STARLINK-4619,1 54191U 22141AL  23252.35939300 -.00001613  00000-0 -83287-4 0  9991,2 54191  53.2168 129.9662 0001608  88.6560 271.4616 15.08824547 48261,6917.928,95.439,540.905,538.68,0.0
54191.0,STARLINK-4619,PAYLOAD,2023-09-10 00:31:22,15.08842159,0.0001333,53.2168,126.9937,93.8965,266.218,-0.0001062,-1.978e-05,0.0,0 STARLINK-4619,1 54191U 22141AL  23253.02178990 -.00001978  00000-0 -10620-3 0  9990,2 54191  53.2168 126.9937 0001333  93.8965 266.2180 15.08842159 48598,6917.874,95.437,540.661,538.817,0.0
